{"type": "FeatureCollection", "features": [{"type": "Feature", "properties": {"norad_id": 24946, "name": "IRIDIUM 33", "group": "iridium-33-debris", "lat": -47.440842485532414, "lon": 60.898280423271956, "alt_km": 786.1119508750799, "timestamp": "2025-12-20T18:51:32.097725+00:00", "meta": {"OBJECT_NAME": "IRIDIUM 33", "OBJECT_ID": "1997-051C", "EPOCH": "2025-12-20T05:41:33.469152", "MEAN_MOTION": 14.35042342, "ECCENTRICITY": 0.0007926, "INCLINATION": 86.3865, "RA_OF_ASC_NODE": 65.0747, "ARG_OF_PERICENTER": 175.124, "MEAN_ANOMALY": 185.0035, "EPHEMERIS_TYPE": 0, "CLASSIFICATION_TYPE": "U", "NORAD_CAT_ID": 24946, "ELEMENT_SET_NO": 999, "REV_AT_EPOCH": 47942, "BSTAR": 8.8822e-05, "MEAN_MOTION_DOT": 2.73e-06, "MEAN_MOTION_DDOT": 0}, "tle": {"line1": "1 24946U 97051C   25354.23719293  .00000273  00000+0  88822-4 0  9995", "line2": "2 24946  86.3865  65.0747 0007926 175.1240 185.0035 14.35042342479422"}}, "geometry": {"type": "Point", "coordinates": [60.898280423271956, -47.440842485532414]}}, {"type": "Feature", "properties": {"norad_id": 33773, "name": "IRIDIUM 33 DEB", "group": "iridium-33-debris", "lat": 32.40026905964477, "lon": -125.10986296526727, "alt_km": 737.3694602049527, "timestamp": "2025-12-20T18:51:32.097763+00:00", "meta": {"OBJECT_NAME": "IRIDIUM 33 DEB", "OBJECT_ID": "1997-051L", "EPOCH": "2025-12-20T14:51:03.588192", "MEAN_MOTION": 14.43272103, "ECCENTRICITY": 0.00131023, "INCLINATION": 86.4001, "RA_OF_ASC_NODE": 57.2506, "ARG_OF_PERICENTER": 123.5975, "MEAN_ANOMALY": 236.6478, "EPHEMERIS_TYPE": 0, "CLASSIFICATION_TYPE": "U", "NORAD_CAT_ID": 33773, "ELEMENT_SET_NO": 999, "REV_AT_EPOCH": 88461, "BSTAR": 0.00020040866, "MEAN_MOTION_DOT": 6.95e-06, "MEAN_MOTION_DDOT": 0}, "tle": {"line1": "1 33773U 97051L   25354.61879153  .00000695  00000+0  20041-3 0  9993", "line2": "2 33773  86.4001  57.2506 0013102 123.5975 236.6478 14.43272103884618"}}, "geometry": {"type": "Point", "coordinates": [-125.10986296526727, 32.40026905964477]}}, {"type": "Feature", "properties": {"norad_id": 33775, "name": "IRIDIUM 33 DEB", "group": "iridium-33-debris", "lat": 0.5940789138489035, "lon": -133.91938091899814, "alt_km": 749.5265456283068, "timestamp": "2025-12-20T18:51:32.097780+00:00", "meta": {"OBJECT_NAME": "IRIDIUM 33 DEB", "OBJECT_ID": "1997-051N", "EPOCH": "2025-12-20T09:46:27.262272", "MEAN_MOTION": 14.41483487, "ECCENTRICITY": 0.00150209, "INCLINATION": 86.3628, "RA_OF_ASC_NODE": 46.28, "ARG_OF_PERICENTER": 131.6576, "MEAN_ANOMALY": 244.435, "EPHEMERIS_TYPE": 0, "CLASSIFICATION_TYPE": "U", "NORAD_CAT_ID": 33775, "ELEMENT_SET_NO": 999, "REV_AT_EPOCH": 88251, "BSTAR": 0.00022414804, "MEAN_MOTION_DOT": 7.48e-06, "MEAN_MOTION_DDOT": 0}, "tle": {"line1": "1 33775U 97051N   25354.40725998  .00000748  00000+0  22415-3 0  9995", "line2": "2 33775  86.3628  46.2800 0015020 131.6576 244.4350 14.41483487882517"}}, "geometry": {"type": "Point", "coordinates": [-133.91938091899814, 0.5940789138489035]}}, {"type": "Feature", "properties": {"norad_id": 33776, "name": "IRIDIUM 33 DEB", "group": "iridium-33-debris", "lat": -44.62485915094567, "lon": 73.83798517011351, "alt_km": 780.5970229673367, "timestamp": "2025-12-20T18:51:32.097793+00:00", "meta": {"OBJECT_NAME": "IRIDIUM 33 DEB", "OBJECT_ID": "1997-051P", "EPOCH": "2025-12-20T12:26:17.262240", "MEAN_MOTION": 14.38247887, "ECCENTRICITY": 0.00152475, "INCLINATION": 86.4034, "RA_OF_ASC_NODE": 77.5094, "ARG_OF_PERICENTER": 165.3741, "MEAN_ANOMALY": 205.5713, "EPHEMERIS_TYPE": 0, "CLASSIFICATION_TYPE": "U", "NORAD_CAT_ID": 33776, "ELEMENT_SET_NO": 999, "REV_AT_EPOCH": 88194, "BSTAR": 0.00020630257, "MEAN_MOTION_DOT": 6.47e-06, "MEAN_MOTION_DDOT": 0}, "tle": {"line1": "1 33776U 97051P   25354.51825535  .00000647  00000+0  20630-3 0  9991", "line2": "2 33776  86.4034  77.5094 0015247 165.3741 205.5713 14.38247887881946"}}, "geometry": {"type": "Point", "coordinates": [73.83798517011351, -44.62485915094567]}}, {"type": "Feature", "properties": {"norad_id": 33777, "name": "IRIDIUM 33 DEB", "group": "iridium-33-debris", "lat": -66.07665490624528, "lon": -140.08675030210026, "alt_km": 711.0672906081854, "timestamp": "2025-12-20T18:51:32.097806+00:00", "meta": {"OBJECT_NAME": "IRIDIUM 33 DEB", "OBJECT_ID": "1997-051Q", "EPOCH": "2025-12-20T12:46:53.076000", "MEAN_MOTION": 14.55663152, "ECCENTRICITY": 0.00057892, "INCLINATION": 86.3775, "RA_OF_ASC_NODE": 31.8134, "ARG_OF_PERICENTER": 214.9049, "MEAN_ANOMALY": 145.178, "EPHEMERIS_TYPE": 0, "CLASSIFICATION_TYPE": "U", "NORAD_CAT_ID": 33777, "ELEMENT_SET_NO": 999, "REV_AT_EPOCH": 88647, "BSTAR": 0.00051288912, "MEAN_MOTION_DOT": 2.26e-05, "MEAN_MOTION_DDOT": 0}, "tle": {"line1": "1 33777U 97051Q   25354.53255875  .00002260  00000+0  51289-3 0  9995", "line2": "2 33777  86.3775  31.8134 0005789 214.9049 145.1780 14.55663152886470"}}, "geometry": {"type": "Point", "coordinates": [-140.08675030210026, -66.07665490624528]}}, {"type": "Feature", "properties": {"norad_id": 33850, "name": "IRIDIUM 33 DEB", "group": "iridium-33-debris", "lat": 0.10424043205440846, "lon": -153.28690239036996, "alt_km": 747.6432603323783, "timestamp": "2025-12-20T18:51:32.097818+00:00", "meta": {"OBJECT_NAME": "IRIDIUM 33 DEB", "OBJECT_ID": "1997-051T", "EPOCH": "2025-12-20T13:44:57.157728", "MEAN_MOTION": 14.42162689, "ECCENTRICITY": 0.00129351, "INCLINATION": 86.341, "RA_OF_ASC_NODE": 26.8113, "ARG_OF_PERICENTER": 137.6039, "MEAN_ANOMALY": 17.42, "EPHEMERIS_TYPE": 0, "CLASSIFICATION_TYPE": "U", "NORAD_CAT_ID": 33850, "ELEMENT_SET_NO": 999, "REV_AT_EPOCH": 88265, "BSTAR": 0.00025339454, "MEAN_MOTION_DOT": 8.54e-06, "MEAN_MOTION_DDOT": 0}, "tle": {"line1": "1 33850U 97051T   25354.57288377  .00000854  00000+0  25339-3 0  9998", "line2": "2 33850  86.3410  26.8113 0012935 137.6039  17.4200 14.42162689882659"}}, "geometry": {"type": "Point", "coordinates": [-153.28690239036996, 0.10424043205440846]}}, {"type": "Feature", "properties": {"norad_id": 33853, "name": "IRIDIUM 33 DEB", "group": "iridium-33-debris", "lat": 36.60743496048989, "lon": -10.737709496443623, "alt_km": 1044.368811790595, "timestamp": "2025-12-20T18:51:32.097830+00:00", "meta": {"OBJECT_NAME": "IRIDIUM 33 DEB", "OBJECT_ID": "1997-051W", "EPOCH": "2025-12-20T10:42:24.160608", "MEAN_MOTION": 13.99101393, "ECCENTRICITY": 0.02072613, "INCLINATION": 85.9998, "RA_OF_ASC_NODE": 346.4315, "ARG_OF_PERICENTER": 212.032, "MEAN_ANOMALY": 275.1886, "EPHEMERIS_TYPE": 0, "CLASSIFICATION_TYPE": "U", "NORAD_CAT_ID": 33853, "ELEMENT_SET_NO": 999, "REV_AT_EPOCH": 85453, "BSTAR": 0.0010652469, "MEAN_MOTION_DOT": 1.87e-05, "MEAN_MOTION_DDOT": 0}, "tle": {"line1": "1 33853U 97051W   25354.44611297  .00001870  00000+0  10652-2 0  9998", "line2": "2 33853  85.9998 346.4315 0207261 212.0320 275.1886 13.99101393854537"}}, "geometry": {"type": "Point", "coordinates": [-10.737709496443623, 36.60743496048989]}}, {"type": "Feature", "properties": {"norad_id": 33860, "name": "IRIDIUM 33 DEB", "group": "iridium-33-debris", "lat": 55.55947205556018, "lon": -161.61734978338285, "alt_km": 668.217348518895, "timestamp": "2025-12-20T18:51:32.097842+00:00", "meta": {"OBJECT_NAME": "IRIDIUM 33 DEB", "OBJECT_ID": "1997-051AD", "EPOCH": "2025-12-20T13:57:22.221216", "MEAN_MOTION": 14.6745366, "ECCENTRICITY": 0.00064969, "INCLINATION": 86.3822, "RA_OF_ASC_NODE": 23.7668, "ARG_OF_PERICENTER": 328.1322, "MEAN_ANOMALY": 157.5693, "EPHEMERIS_TYPE": 0, "CLASSIFICATION_TYPE": "U", "NORAD_CAT_ID": 33860, "ELEMENT_SET_NO": 999, "REV_AT_EPOCH": 88837, "BSTAR": 0.00067779964, "MEAN_MOTION_DOT": 3.859e-05, "MEAN_MOTION_DDOT": 0}, "tle": {"line1": "1 33860U 97051AD  25354.58150719  .00003859  00000+0  67780-3 0  9992", "line2": "2 33860  86.3822  23.7668 0006496 328.1322 157.5693 14.67453660888371"}}, "geometry": {"type": "Point", "coordinates": [-161.61734978338285, 55.55947205556018]}}, {"type": "Feature", "properties": {"norad_id": 33862, "name": "IRIDIUM 33 DEB", "group": "iridium-33-debris", "lat": -40.87932206694272, "lon": -142.90086009825063, "alt_km": 706.1245207479442, "timestamp": "2025-12-20T18:51:32.097853+00:00", "meta": {"OBJECT_NAME": "IRIDIUM 33 DEB", "OBJECT_ID": "1997-051AF", "EPOCH": "2025-12-20T13:30:03.805056", "MEAN_MOTION": 14.69587199, "ECCENTRICITY": 0.00526759, "INCLINATION": 86.4079, "RA_OF_ASC_NODE": 34.0806, "ARG_OF_PERICENTER": 42.9982, "MEAN_ANOMALY": 77.561, "EPHEMERIS_TYPE": 0, "CLASSIFICATION_TYPE": "U", "NORAD_CAT_ID": 33862, "ELEMENT_SET_NO": 999, "REV_AT_EPOCH": 88938, "BSTAR": 0.00081002149, "MEAN_MOTION_DOT": 4.938e-05, "MEAN_MOTION_DDOT": 0}, "tle": {"line1": "1 33862U 97051AF  25354.56254404  .00004938  00000+0  81002-3 0  9990", "line2": "2 33862  86.4079  34.0806 0052675  42.9982  77.5610 14.69587199889389"}}, "geometry": {"type": "Point", "coordinates": [-142.90086009825063, -40.87932206694272]}}, {"type": "Feature", "properties": {"norad_id": 33866, "name": "IRIDIUM 33 DEB", "group": "iridium-33-debris", "lat": 83.94604005068791, "lon": 127.23081645069225, "alt_km": 747.0928092488502, "timestamp": "2025-12-20T18:51:32.097864+00:00", "meta": {"OBJECT_NAME": "IRIDIUM 33 DEB", "OBJECT_ID": "1997-051AK", "EPOCH": "2025-12-20T06:55:12.571680", "MEAN_MOTION": 14.25296077, "ECCENTRICITY": 0.01149854, "INCLINATION": 86.3, "RA_OF_ASC_NODE": 89.8422, "ARG_OF_PERICENTER": 137.4548, "MEAN_ANOMALY": 277.9322, "EPHEMERIS_TYPE": 0, "CLASSIFICATION_TYPE": "U", "NORAD_CAT_ID": 33866, "ELEMENT_SET_NO": 999, "REV_AT_EPOCH": 86918, "BSTAR": 0.00040225424, "MEAN_MOTION_DOT": 1.034e-05, "MEAN_MOTION_DDOT": 0}, "tle": {"line1": "1 33866U 97051AK  25354.28833995  .00001034  00000+0  40225-3 0  9997", "line2": "2 33866  86.3000  89.8422 0114985 137.4548 277.9322 14.25296077869185"}}, "geometry": {"type": "Point", "coordinates": [127.23081645069225, 83.94604005068791]}}]}